{"fetched_at":"2026-07-18T06:28:12.370Z","source":"https://celestrak.org/NORAD/elements/gp.php?NAME=ICEYE&FORMAT=JSON","constellation":"iceye","records":[{"OBJECT_NAME":"ICEYE-X53","OBJECT_ID":"2025-135BJ","EPOCH":"2026-07-17T23:00:18.365760","CLASSIFICATION_TYPE":"U","MEAN_MOTION":15.00900404,"ECCENTRICITY":0.00020396,"INCLINATION":97.7358,"RA_OF_ASC_NODE":315.6042,"ARG_OF_PERICENTER":165.0225,"MEAN_ANOMALY":195.106,"EPHEMERIS_TYPE":0,"NORAD_CAT_ID":64584,"ELEMENT_SET_NO":999,"REV_AT_EPOCH":5869,"BSTAR":0.00011162645,"MEAN_MOTION_DOT":0.00001361,"MEAN_MOTION_DDOT":0},{"OBJECT_NAME":"ICEYE-X65","OBJECT_ID":"2025-248H","EPOCH":"2026-07-17T10:13:01.661088","CLASSIFICATION_TYPE":"U","MEAN_MOTION":15.07935989,"ECCENTRICITY":0.0005696,"INCLINATION":45.4068,"RA_OF_ASC_NODE":335.1699,"ARG_OF_PERICENTER":210.6035,"MEAN_ANOMALY":149.4515,"EPHEMERIS_TYPE":0,"NORAD_CAT_ID":66300,"ELEMENT_SET_NO":999,"REV_AT_EPOCH":4008,"BSTAR":0.00011365,"MEAN_MOTION_DOT":0.00001524,"MEAN_MOTION_DDOT":0},{"OBJECT_NAME":"ICEYE-X66","OBJECT_ID":"2025-248J","EPOCH":"2026-07-17T18:03:38.501280","CLASSIFICATION_TYPE":"U","MEAN_MOTION":15.09187062,"ECCENTRICITY":0.0005415,"INCLINATION":45.4025,"RA_OF_ASC_NODE":332.5054,"ARG_OF_PERICENTER":208.4694,"MEAN_ANOMALY":151.5892,"EPHEMERIS_TYPE":0,"NORAD_CAT_ID":66301,"ELEMENT_SET_NO":999,"REV_AT_EPOCH":4012,"BSTAR":0.00011448983,"MEAN_MOTION_DOT":0.00001596,"MEAN_MOTION_DDOT":0},{"OBJECT_NAME":"ICEYE-X67","OBJECT_ID":"2025-248K","EPOCH":"2026-07-17T18:39:13.904928","CLASSIFICATION_TYPE":"U","MEAN_MOTION":15.09168753,"ECCENTRICITY":0.00069728,"INCLINATION":45.406,"RA_OF_ASC_NODE":331.9548,"ARG_OF_PERICENTER":208.1995,"MEAN_ANOMALY":151.851,"EPHEMERIS_TYPE":0,"NORAD_CAT_ID":66302,"ELEMENT_SET_NO":999,"REV_AT_EPOCH":4014,"BSTAR":0.00011938658,"MEAN_MOTION_DOT":0.00001674,"MEAN_MOTION_DDOT":0},{"OBJECT_NAME":"ICEYE-X58","OBJECT_ID":"2025-276CP","EPOCH":"2026-07-17T22:01:07.432032","CLASSIFICATION_TYPE":"U","MEAN_MOTION":15.17314803,"ECCENTRICITY":0.0002434,"INCLINATION":97.4196,"RA_OF_ASC_NODE":271.7401,"ARG_OF_PERICENTER":200.2377,"MEAN_ANOMALY":159.8761,"EPHEMERIS_TYPE":0,"NORAD_CAT_ID":66751,"ELEMENT_SET_NO":999,"REV_AT_EPOCH":3507,"BSTAR":0.000072624596,"MEAN_MOTION_DOT":0.00001382,"MEAN_MOTION_DDOT":0},{"OBJECT_NAME":"ICEYE-X59","OBJECT_ID":"2025-276CQ","EPOCH":"2026-07-17T22:42:26.172000","CLASSIFICATION_TYPE":"U","MEAN_MOTION":15.00767543,"ECCENTRICITY":0.00011342,"INCLINATION":97.4397,"RA_OF_ASC_NODE":268.9294,"ARG_OF_PERICENTER":134.2006,"MEAN_ANOMALY":225.9311,"EPHEMERIS_TYPE":0,"NORAD_CAT_ID":66752,"ELEMENT_SET_NO":999,"REV_AT_EPOCH":3488,"BSTAR":0.00020881109,"MEAN_MOTION_DOT":0.00002593,"MEAN_MOTION_DDOT":0},{"OBJECT_NAME":"ICEYE-X60","OBJECT_ID":"2025-276CR","EPOCH":"2026-07-17T04:28:41.297376","CLASSIFICATION_TYPE":"U","MEAN_MOTION":15.10704246,"ECCENTRICITY":0.00022814,"INCLINATION":97.4241,"RA_OF_ASC_NODE":269.9598,"ARG_OF_PERICENTER":357.96,"MEAN_ANOMALY":2.162,"EPHEMERIS_TYPE":0,"NORAD_CAT_ID":66753,"ELEMENT_SET_NO":999,"REV_AT_EPOCH":3489,"BSTAR":0.00012354587,"MEAN_MOTION_DOT":0.00001984,"MEAN_MOTION_DDOT":0},{"OBJECT_NAME":"ICEYE-X61","OBJECT_ID":"2025-276CS","EPOCH":"2026-07-16T17:56:02.184000","CLASSIFICATION_TYPE":"U","MEAN_MOTION":15.18614124,"ECCENTRICITY":0.00022128,"INCLINATION":97.4193,"RA_OF_ASC_NODE":270.6864,"ARG_OF_PERICENTER":207.8838,"MEAN_ANOMALY":152.2279,"EPHEMERIS_TYPE":0,"NORAD_CAT_ID":66754,"ELEMENT_SET_NO":999,"REV_AT_EPOCH":3490,"BSTAR":0.000079163093,"MEAN_MOTION_DOT":0.00001571,"MEAN_MOTION_DDOT":0},{"OBJECT_NAME":"ICEYE-X62","OBJECT_ID":"2025-276CT","EPOCH":"2026-07-16T17:59:00.861792","CLASSIFICATION_TYPE":"U","MEAN_MOTION":15.10153672,"ECCENTRICITY":0.00011291,"INCLINATION":97.4179,"RA_OF_ASC_NODE":269.0335,"ARG_OF_PERICENTER":210.4552,"MEAN_ANOMALY":149.6612,"EPHEMERIS_TYPE":0,"NORAD_CAT_ID":66755,"ELEMENT_SET_NO":999,"REV_AT_EPOCH":3479,"BSTAR":0.00018242548,"MEAN_MOTION_DOT":0.00002915,"MEAN_MOTION_DDOT":0},{"OBJECT_NAME":"ICEYE-X63","OBJECT_ID":"2026-004K","EPOCH":"2026-07-17T22:34:39.135936","CLASSIFICATION_TYPE":"U","MEAN_MOTION":14.88351835,"ECCENTRICITY":0.00052464,"INCLINATION":97.8015,"RA_OF_ASC_NODE":197.1015,"ARG_OF_PERICENTER":44.7224,"MEAN_ANOMALY":315.4415,"EPHEMERIS_TYPE":0,"NORAD_CAT_ID":67372,"ELEMENT_SET_NO":999,"REV_AT_EPOCH":2787,"BSTAR":0.000054782395,"MEAN_MOTION_DOT":0.00000453,"MEAN_MOTION_DDOT":0},{"OBJECT_NAME":"ICEYE-X64","OBJECT_ID":"2026-004L","EPOCH":"2026-07-17T22:08:55.119552","CLASSIFICATION_TYPE":"U","MEAN_MOTION":14.87991079,"ECCENTRICITY":0.00071013,"INCLINATION":97.8028,"RA_OF_ASC_NODE":197.0019,"ARG_OF_PERICENTER":46.8615,"MEAN_ANOMALY":313.3194,"EPHEMERIS_TYPE":0,"NORAD_CAT_ID":67373,"ELEMENT_SET_NO":999,"REV_AT_EPOCH":2786,"BSTAR":0.000070507468,"MEAN_MOTION_DOT":0.00000593,"MEAN_MOTION_DDOT":0},{"OBJECT_NAME":"ICEYE-X71","OBJECT_ID":"2026-067CG","EPOCH":"2026-07-16T20:16:26.315328","CLASSIFICATION_TYPE":"U","MEAN_MOTION":14.91078756,"ECCENTRICITY":0.0001106,"INCLINATION":97.7615,"RA_OF_ASC_NODE":155.6278,"ARG_OF_PERICENTER":309.579,"MEAN_ANOMALY":50.5331,"EPHEMERIS_TYPE":0,"NORAD_CAT_ID":68494,"ELEMENT_SET_NO":999,"REV_AT_EPOCH":1614,"BSTAR":-0.013483,"MEAN_MOTION_DOT":-0.00131048,"MEAN_MOTION_DDOT":0},{"OBJECT_NAME":"ICEYE-X73","OBJECT_ID":"2026-067CJ","EPOCH":"2026-07-17T21:02:37.636800","CLASSIFICATION_TYPE":"U","MEAN_MOTION":14.92355106,"ECCENTRICITY":0.000177,"INCLINATION":97.7624,"RA_OF_ASC_NODE":156.732,"ARG_OF_PERICENTER":143.922,"MEAN_ANOMALY":216.2119,"EPHEMERIS_TYPE":0,"NORAD_CAT_ID":68496,"ELEMENT_SET_NO":999,"REV_AT_EPOCH":1630,"BSTAR":0.00011186821,"MEAN_MOTION_DOT":0.00001088,"MEAN_MOTION_DDOT":0},{"OBJECT_NAME":"ICEYE-X75","OBJECT_ID":"2026-067CK","EPOCH":"2026-07-17T21:09:32.518368","CLASSIFICATION_TYPE":"U","MEAN_MOTION":14.92176429,"ECCENTRICITY":0.0001664,"INCLINATION":97.7607,"RA_OF_ASC_NODE":156.7027,"ARG_OF_PERICENTER":140.7892,"MEAN_ANOMALY":219.3448,"EPHEMERIS_TYPE":0,"NORAD_CAT_ID":68497,"ELEMENT_SET_NO":999,"REV_AT_EPOCH":1630,"BSTAR":0.000054365733,"MEAN_MOTION_DOT":0.00000498,"MEAN_MOTION_DDOT":0},{"OBJECT_NAME":"ICEYE-X74","OBJECT_ID":"2026-067CN","EPOCH":"2026-07-17T20:22:55.149024","CLASSIFICATION_TYPE":"U","MEAN_MOTION":14.91800079,"ECCENTRICITY":0.00006435,"INCLINATION":97.7633,"RA_OF_ASC_NODE":156.6274,"ARG_OF_PERICENTER":329.6837,"MEAN_ANOMALY":30.4345,"EPHEMERIS_TYPE":0,"NORAD_CAT_ID":68500,"ELEMENT_SET_NO":999,"REV_AT_EPOCH":1629,"BSTAR":0.00012280157,"MEAN_MOTION_DOT":0.00001183,"MEAN_MOTION_DDOT":0},{"OBJECT_NAME":"ICEYE-X76","OBJECT_ID":"2026-067CQ","EPOCH":"2026-07-17T20:17:06.963936","CLASSIFICATION_TYPE":"U","MEAN_MOTION":14.91753989,"ECCENTRICITY":0.00004458,"INCLINATION":97.7641,"RA_OF_ASC_NODE":156.6417,"ARG_OF_PERICENTER":283.6065,"MEAN_ANOMALY":76.5105,"EPHEMERIS_TYPE":0,"NORAD_CAT_ID":68502,"ELEMENT_SET_NO":999,"REV_AT_EPOCH":1629,"BSTAR":0.000057112825,"MEAN_MOTION_DOT":0.0000052,"MEAN_MOTION_DDOT":0}]}
